NORAD_CAT_ID,OBJECT_NAME,OBJECT_TYPE,EPOCH,MEAN_MOTION,ECCENTRICITY,INCLINATION,RA_OF_ASC_NODE,ARG_OF_PERICENTER,MEAN_ANOMALY,BSTAR,MEAN_MOTION_DOT,MEAN_MOTION_DDOT,TLE_LINE0,TLE_LINE1,TLE_LINE2,SEMIMAJOR_AXIS,PERIOD,APOGEE,PERIGEE,DECAYED
55401.0,STARLINK-5076,PAYLOAD,2023-11-12 11:34:09,14.98330538,0.000275,70.0016,43.0329,269.0516,91.0328,-6.0405e-06,-1.65e-06,0.0,0 STARLINK-5076,1 55401U 23014L   23316.48205904 -.00000165  00000-0 -60405-5 0  9996,2 55401  70.0016  43.0329 0002750 269.0516  91.0328 14.98330538 44066,6950.191,96.107,573.968,570.145,0.0
55401.0,STARLINK-5076,PAYLOAD,2023-11-12 13:10:17,14.98332288,0.0002555,70.0015,42.8647,264.0846,96.0022,-1.3114e-05,-2.49e-06,0.0,0 STARLINK-5076,1 55401U 23014L   23316.54881803 -.00000249  00000-0 -13114-4 0  9998,2 55401  70.0015  42.8647 0002555 264.0846  96.0022 14.98332288 45015,6950.186,96.107,573.827,570.275,0.0
55401.0,STARLINK-5076,PAYLOAD,2023-11-12 16:22:33,14.98358218,0.0002566,70.0015,42.5276,266.3143,93.7723,-0.00041816,-5.082e-05,0.0,0 STARLINK-5076,1 55401U 23014L   23316.68233054 -.00005082  00000-0 -41816-3 0  9991,2 55401  70.0015  42.5276 0002566 266.3143  93.7723 14.98358218 44097,6950.106,96.105,573.754,570.187,0.0
55401.0,STARLINK-5076,PAYLOAD,2023-11-12 22:47:06,14.98332949,0.0002704,70.0014,41.8544,269.0176,91.0674,2.0545e-05,1.52e-06,0.0,0 STARLINK-5076,1 55401U 23014L   23316.94937572  .00000152  00000-0  20545-4 0  9994,2 55401  70.0014  41.8544 0002704 269.0176  91.0674 14.98332949 44130,6950.184,96.107,573.928,570.169,0.0
55401.0,STARLINK-5076,PAYLOAD,2023-11-13 13:12:18,14.98335368,0.0002781,70.001,40.3391,268.8913,91.1927,6.6587e-05,7.02e-06,0.0,0 STARLINK-5076,1 55401U 23014L   23317.55021115  .00000702  00000-0  66587-4 0  9996,2 55401  70.0010  40.3391 0002781 268.8913  91.1927 14.98335368 45165,6950.176,96.107,573.974,570.108,0.0
55401.0,STARLINK-5076,PAYLOAD,2023-11-13 22:49:06,14.9833509,0.000284,70.0009,39.3293,268.5835,91.4998,8.1666e-06,4e-08,0.0,0 STARLINK-5076,1 55401U 23014L   23317.95077143  .00000004  00000-0  81666-5 0  9993,2 55401  70.0009  39.3293 0002840 268.5835  91.4998 14.98335090 44283,6950.177,96.107,574.016,570.068,0.0
55401.0,STARLINK-5076,PAYLOAD,2023-11-14 11:38:11,14.98325131,0.0002939,70.0001,37.9814,267.0392,93.043,-7.8607e-05,-1.031e-05,0.0,0 STARLINK-5076,1 55401U 23014L   23318.48485999 -.00001031  00000-0 -78607-4 0  9997,2 55401  70.0001  37.9814 0002939 267.0392  93.0430 14.98325131 44362,6950.208,96.107,574.116,570.03,0.0
55401.0,STARLINK-5076,PAYLOAD,2023-11-14 13:14:19,14.98336992,0.0002992,70.0006,37.8126,264.6378,95.4439,2.2391e-05,1.74e-06,0.0,0 STARLINK-5076,1 55401U 23014L   23318.55161004  .00000174  00000-0  22391-4 0  9997,2 55401  70.0006  37.8126 0002992 264.6378  95.4439 14.98336992 45316,6950.171,96.107,574.116,569.957,0.0
55401.0,STARLINK-5076,PAYLOAD,2023-11-14 16:26:35,14.98334223,0.0003314,70.0009,37.4768,256.4044,103.6746,1.8581e-05,1.29e-06,0.0,0 STARLINK-5076,1 55401U 23014L   23318.68513065  .00000129  00000-0  18581-4 0  9995,2 55401  70.0009  37.4768 0003314 256.4044 103.6746 14.98334223 44390,6950.18,96.107,574.348,569.742,0.0
55401.0,STARLINK-5076,PAYLOAD,2023-11-14 22:51:08,14.98323574,0.0002809,70.001,36.8026,266.9051,93.1786,3.8036e-05,3.61e-06,0.0,0 STARLINK-5076,1 55401U 23014L   23318.95217893  .00000361  00000-0  38036-4 0  9990,2 55401  70.0010  36.8026 0002809 266.9051  93.1786 14.98323574 44433,6950.213,96.107,574.03,570.125,0.0
55401.0,STARLINK-5076,PAYLOAD,2023-11-15 11:40:12,14.9833021,0.0002634,70.001,35.4568,256.2017,103.8849,-2.6374e-05,-4.08e-06,0.0,0 STARLINK-5076,1 55401U 23014L   23319.48625493 -.00000408  00000-0 -26374-4 0  9994,2 55401  70.0010  35.4568 0002634 256.2017 103.8849 14.98330210 44512,6950.192,96.107,573.888,570.227,0.0
55401.0,STARLINK-5076,PAYLOAD,2023-11-15 13:16:20,14.98332929,0.0002704,70.0009,35.2887,257.5257,102.56,-2.1548e-05,-3.5e-06,0.0,0 STARLINK-5076,1 55401U 23014L   23319.55301299 -.00000350  00000-0 -21548-4 0  9991,2 55401  70.0009  35.2887 0002704 257.5257 102.5600 14.98332929 45465,6950.184,96.107,573.928,570.17,0.0
55401.0,STARLINK-5076,PAYLOAD,2023-11-16 08:29:57,14.98325258,0.0002912,70.0001,33.268,269.149,90.9335,8.1912e-05,8.84e-06,0.0,0 STARLINK-5076,1 55401U 23014L   23320.35413492  .00000884  00000-0  81912-4 0  9991,2 55401  70.0001  33.2680 0002912 269.1490  90.9335 14.98325258 45580,6950.208,96.107,574.096,570.049,0.0
55401.0,STARLINK-5076,PAYLOAD,2023-11-16 14:54:29,14.98328864,0.0002884,70.0001,32.5946,265.1293,94.9536,7.3842e-05,7.88e-06,0.0,0 STARLINK-5076,1 55401U 23014L   23320.62117271  .00000788  00000-0  73842-4 0  9993,2 55401  70.0001  32.5946 0002884 265.1293  94.9536 14.98328864 44685,6950.196,96.107,574.066,570.057,0.0
55401.0,STARLINK-5076,PAYLOAD,2023-11-17 11:44:14,14.98298486,0.0002636,70.0004,30.4068,269.8409,90.2448,0.0005453,6.414e-05,0.0,0 STARLINK-5076,1 55401U 23014L   23321.48905898  .00006414  00000-0  54530-3 0  9992,2 55401  70.0004  30.4068 0002636 269.8409  90.2448 14.98298486 44817,6950.29,96.109,573.987,570.323,0.0
55401.0,STARLINK-5076,PAYLOAD,2023-11-17 13:20:22,14.9830999,0.0002532,70.0003,30.2391,260.5695,99.5178,0.00030142,3.503e-05,0.0,0 STARLINK-5076,1 55401U 23014L   23321.55581900  .00003503  00000-0  30142-3 0  9993,2 55401  70.0003  30.2391 0002532 260.5695  99.5178 14.98309990 45763,6950.255,96.108,573.88,570.36,0.0
55401.0,STARLINK-5076,PAYLOAD,2023-11-18 03:45:34,14.98330295,0.0002915,70.0001,28.7242,270.9084,89.1741,-1.8165e-05,-3.1e-06,0.0,0 STARLINK-5076,1 55401U 23014L   23322.15665438 -.00000310  00000-0 -18165-4 0  9996,2 55401  70.0001  28.7242 0002915 270.9084  89.1741 14.98330295 44919,6950.192,96.107,574.083,570.031,0.0
55401.0,STARLINK-5076,PAYLOAD,2023-11-18 11:46:15,14.98330304,0.0002912,70.0001,27.8826,270.6837,89.3988,-1.56e-05,-2.79e-06,0.0,0 STARLINK-5076,1 55401U 23014L   23322.49045413 -.00000279  00000-0 -15600-4 0  9993,2 55401  70.0001  27.8826 0002912 270.6837  89.3988 14.98330304 45903,6950.192,96.107,574.081,570.033,0.0
55401.0,STARLINK-5076,PAYLOAD,2023-11-18 21:23:03,14.98330511,0.0002958,70.0,26.8725,271.2058,88.8762,6.7534e-06,-1.2e-07,0.0,0 STARLINK-5076,1 55401U 23014L   23322.89101288 -.00000012  00000-0  67534-5 0  9998,2 55401  70.0000  26.8725 0002958 271.2058  88.8762 14.98330511 45961,6950.191,96.107,574.112,570.0,0.0
55401.0,STARLINK-5076,PAYLOAD,2023-11-19 11:48:15,14.98330876,0.0002918,70.0001,25.358,269.492,90.5905,3.65e-05,3.43e-06,0.0,0 STARLINK-5076,1 55401U 23014L   23323.49185139  .00000343  00000-0  36500-4 0  9996,2 55401  70.0001  25.3580 0002918 269.4920  90.5905 14.98330876 45118,6950.19,96.107,574.083,570.027,0.0
55401.0,STARLINK-5076,PAYLOAD,2023-11-19 13:24:23,14.98371332,0.0003063,70.0001,25.1896,265.9409,94.14,-0.00065592,-7.919e-05,0.0,0 STARLINK-5076,1 55401U 23014L   23323.55860104 -.00007919  00000-0 -65592-3 0  9995,2 55401  70.0001  25.1896 0003063 265.9409  94.1400 14.98371332 46068,6950.065,96.104,574.059,569.801,0.0
55401.0,STARLINK-5076,PAYLOAD,2023-11-19 21:25:04,14.98342004,0.0002915,70.0001,24.3478,271.1028,88.9797,-0.00017703,-2.205e-05,0.0,0 STARLINK-5076,1 55401U 23014L   23323.89240853 -.00002205  00000-0 -17703-3 0  9999,2 55401  70.0001  24.3478 0002915 271.1028  88.9797 14.98342004 46116,6950.156,96.106,574.047,569.995,0.0
55401.0,STARLINK-5076,PAYLOAD,2023-11-20 13:26:24,14.98331348,0.0002891,70.0,22.6646,267.9527,92.1301,2.1677e-05,1.66e-06,0.0,0 STARLINK-5076,1 55401U 23014L   23324.56001027  .00000166  00000-0  21677-4 0  9990,2 55401  70.0000  22.6646 0002891 267.9527  92.1301 14.98331348 46211,6950.189,96.107,574.063,570.044,0.0
55401.0,STARLINK-5076,PAYLOAD,2023-11-20 16:38:40,14.98333787,0.0002447,70.0004,22.3271,277.1185,82.9696,8.4052e-05,9.1e-06,0.0,0 STARLINK-5076,1 55401U 23014L   23324.69352884  .00000910  00000-0  84052-4 0  9997,2 55401  70.0004  22.3271 0002447 277.1185  82.9696 14.98333787 45296,6950.181,96.107,573.747,570.345,0.0
55401.0,STARLINK-5076,PAYLOAD,2023-11-20 21:27:05,14.98329984,0.0002858,70.0022,21.8228,272.2055,87.8777,1.9084e-05,1.35e-06,0.0,0 STARLINK-5076,1 55401U 23014L   23324.89381075  .00000135  00000-0  19084-4 0  9995,2 55401  70.0022  21.8228 0002858 272.2055  87.8777 14.98329984 46266,6950.193,96.107,574.044,570.072,0.0
55401.0,STARLINK-5076,PAYLOAD,2023-11-21 13:28:25,14.98332438,0.0002883,70.0001,20.1391,268.9277,91.1552,1.1547e-05,4.5e-07,0.0,0 STARLINK-5076,1 55401U 23014L   23325.56140864  .00000045  00000-0  11547-4 0  9995,2 55401  70.0001  20.1391 0002883 268.9277  91.1552 14.98332438 46360,6950.185,96.107,574.054,570.047,0.0
55401.0,STARLINK-5076,PAYLOAD,2023-11-22 03:53:38,14.98330221,0.000303,69.9998,18.6243,270.369,89.7122,2.1543e-05,1.64e-06,0.0,0 STARLINK-5076,1 55401U 23014L   23326.16224849  .00000164  00000-0  21543-4 0  9997,2 55401  69.9998  18.6243 0003030 270.3690  89.7122 14.98330221 45511,6950.192,96.107,574.163,569.951,0.0
55401.0,STARLINK-5076,PAYLOAD,2023-11-22 11:54:17,14.983384,0.0002899,69.9997,17.782,268.8502,91.2325,8.6995e-05,9.45e-06,0.0,0 STARLINK-5076,1 55401U 23014L   23326.49604071  .00000945  00000-0  86995-4 0  9991,2 55401  69.9997  17.7820 0002899 268.8502  91.2325 14.98338400 45562,6950.167,96.106,574.047,570.017,0.0
55401.0,STARLINK-5076,PAYLOAD,2023-11-22 13:30:25,14.98340129,0.0002883,69.9999,17.6138,268.9536,91.1293,0.00010228,1.128e-05,0.0,0 STARLINK-5076,1 55401U 23014L   23326.56279883  .00001128  00000-0  10228-3 0  9997,2 55401  69.9999  17.6138 0002883 268.9536  91.1293 14.98340129 46516,6950.162,96.106,574.03,570.023,0.0
55401.0,STARLINK-5076,PAYLOAD,2023-11-23 03:55:39,14.98327981,0.0002298,70.0022,16.0987,259.7269,100.3631,2.9757e-06,-5.7e-07,0.0,0 STARLINK-5076,1 55401U 23014L   23327.16364881 -.00000057  00000-0  29757-5 0  9997,2 55401  70.0022  16.0987 0002298 259.7269 100.3631 14.98327981 45667,6950.199,96.107,573.661,570.467,0.0
